{
  "type": "FeatureCollection",
  "features": [
    {
      "type": "Feature",
      "properties": {
        "norad_id": 66645,
        "name": "SHENZHOU-22",
        "group": "last-30-days",
        "lat": 36.57950704346909,
        "lon": 116.22399503107165,
        "alt_km": 380.4000707970781,
        "timestamp": "2025-12-16T13:52:36.287222+00:00",
        "meta_object_name": "SHENZHOU-22",
        "meta_object_id": "2025-272A",
        "meta_epoch": "2025-12-15T17:24:02.570400",
        "meta_mean_motion": 15.59304358,
        "meta_eccentricity": 0.00079014,
        "meta_inclination": 41.4685,
        "meta_ra_of_asc_node": 358.5824,
        "meta_arg_of_pericenter": 56.1338,
        "meta_mean_anomaly": 304.0252,
        "meta_ephemeris_type": 0,
        "meta_classification_type": "U",
        "meta_norad_cat_id": 66645,
        "meta_element_set_no": 999,
        "meta_rev_at_epoch": 26357,
        "meta_bstar": 0.00018266576,
        "meta_mean_motion_dot": 0.00014504,
        "meta_mean_motion_ddot": 0,
        "tle_line1": "1 66645U 25272A   25349.72502975  .00014504  00000+0  18267-3 0  9995",
        "tle_line2": "2 66645  41.4685 358.5824 0007901  56.1338 304.0252 15.59304358263577"
      },
      "geometry": {
        "type": "Point",
        "coordinates": [
          116.22399503107165,
          36.57950704346909
        ]
      }
    },
    {
      "type": "Feature",
      "properties": {
        "norad_id": 66647,
        "name": "COSMOS 2597 (RODNIK-S 22)",
        "group": "last-30-days",
        "lat": -17.441794379860077,
        "lon": -78.30660053351576,
        "alt_km": 1500.426971714437,
        "timestamp": "2025-12-16T13:52:36.287233+00:00",
        "meta_object_name": "COSMOS 2597 (RODNIK-S 22)",
        "meta_object_id": "2025-273A",
        "meta_epoch": "2025-12-15T22:30:14.973120",
        "meta_mean_motion": 12.41952036,
        "meta_eccentricity": 0.00076901,
        "meta_inclination": 82.4989,
        "meta_ra_of_asc_node": 284.4632,
        "meta_arg_of_pericenter": 279.3024,
        "meta_mean_anomaly": 80.7185,
        "meta_ephemeris_type": 0,
        "meta_classification_type": "U",
        "meta_norad_cat_id": 66647,
        "meta_element_set_no": 999,
        "meta_rev_at_epoch": 253,
        "meta_bstar": -5.316386e-05,
        "meta_mean_motion_dot": 3e-08,
        "meta_mean_motion_ddot": 0,
        "tle_line1": "1 66647U 25273A   25349.93767330  .00000003  00000+0 -53164-4 0  9995",
        "tle_line2": "2 66647  82.4989 284.4632 0007690 279.3024  80.7185 12.41952036  2531"
      },
      "geometry": {
        "type": "Point",
        "coordinates": [
          -78.30660053351576,
          -17.441794379860077
        ]
      }
    },
    {
      "type": "Feature",
      "properties": {
        "norad_id": 66648,
        "name": "COSMOS 2598 (RODNIK-S 23)",
        "group": "last-30-days",
        "lat": 35.410863987180115,
        "lon": -70.56697471334144,
        "alt_km": 1496.5227220636398,
        "timestamp": "2025-12-16T13:52:36.287243+00:00",
        "meta_object_name": "COSMOS 2598 (RODNIK-S 23)",
        "meta_object_id": "2025-273B",
        "meta_epoch": "2025-12-15T22:14:00.985920",
        "meta_mean_motion": 12.43233462,
        "meta_eccentricity": 0.00080122,
        "meta_inclination": 82.5028,
        "meta_ra_of_asc_node": 284.4669,
        "meta_arg_of_pericenter": 229.2968,
        "meta_mean_anomaly": 130.7416,
        "meta_ephemeris_type": 0,
        "meta_classification_type": "U",
        "meta_norad_cat_id": 66648,
        "meta_element_set_no": 999,
        "meta_rev_at_epoch": 253,
        "meta_bstar": -9.7607786e-05,
        "meta_mean_motion_dot": -4e-08,
        "meta_mean_motion_ddot": 0,
        "tle_line1": "1 66648U 25273B   25349.92640030 -.00000004  00000+0 -97608-4 0  9995",
        "tle_line2": "2 66648  82.5028 284.4669 0008012 229.2968 130.7416 12.43233462  2537"
      },
      "geometry": {
        "type": "Point",
        "coordinates": [
          -70.56697471334144,
          35.410863987180115
        ]
      }
    },
    {
      "type": "Feature",
      "properties": {
        "norad_id": 66649,
        "name": "COSMOS 2599 (RODNIK-S 24)",
        "group": "last-30-days",
        "lat": -46.77102469285053,
        "lon": -83.96166247653196,
        "alt_km": 1504.7855937873082,
        "timestamp": "2025-12-16T13:52:36.287256+00:00",
        "meta_object_name": "COSMOS 2599 (RODNIK-S 24)",
        "meta_object_id": "2025-273C",
        "meta_epoch": "2025-12-15T22:39:14.138496",
        "meta_mean_motion": 12.41150981,
        "meta_eccentricity": 0.00062985,
        "meta_inclination": 82.5046,
        "meta_ra_of_asc_node": 284.4814,
        "meta_arg_of_pericenter": 270.8068,
        "meta_mean_anomaly": 89.2289,
        "meta_ephemeris_type": 0,
        "meta_classification_type": "U",
        "meta_norad_cat_id": 66649,
        "meta_element_set_no": 999,
        "meta_rev_at_epoch": 253,
        "meta_bstar": -7.3515866e-05,
        "meta_mean_motion_dot": 0,
        "meta_mean_motion_ddot": 0,
        "tle_line1": "1 66649U 25273C   25349.94391364  .00000000  00000+0 -73516-4 0  9998",
        "tle_line2": "2 66649  82.5046 284.4814 0006298 270.8068  89.2289 12.41150981  2535"
      },
      "geometry": {
        "type": "Point",
        "coordinates": [
          -83.96166247653196,
          -46.77102469285053
        ]
      }
    },
    {
      "type": "Feature",
      "properties": {
        "norad_id": 66650,
        "name": "BEE-1000",
        "group": "last-30-days",
        "lat": 11.577875307551437,
        "lon": -83.90133180411992,
        "alt_km": 599.2303321928666,
        "timestamp": "2025-12-16T13:52:36.287267+00:00",
        "meta_object_name": "BEE-1000",
        "meta_object_id": "2025-274A",
        "meta_epoch": "2025-12-15T20:06:54.966816",
        "meta_mean_motion": 14.91674724,
        "meta_eccentricity": 0.00104837,
        "meta_inclination": 97.7392,
        "meta_ra_of_asc_node": 276.9688,
        "meta_arg_of_pericenter": 239.8686,
        "meta_mean_anomaly": 120.1495,
        "meta_ephemeris_type": 0,
        "meta_classification_type": "U",
        "meta_norad_cat_id": 66650,
        "meta_element_set_no": 999,
        "meta_rev_at_epoch": 286,
        "meta_bstar": 0.00011818074,
        "meta_mean_motion_dot": 1.133e-05,
        "meta_mean_motion_ddot": 0,
        "tle_line1": "1 66650U 25274A   25349.83813619  .00001133  00000+0  11818-3 0  9994",
        "tle_line2": "2 66650  97.7392 276.9688 0010483 239.8686 120.1495 14.91674724  2869"
      },
      "geometry": {
        "type": "Point",
        "coordinates": [
          -83.90133180411992,
          11.577875307551437
        ]
      }
    },
    {
      "type": "Feature",
      "properties": {
        "norad_id": 66651,
        "name": "2025-274B",
        "group": "last-30-days",
        "lat": 18.48678457328791,
        "lon": -84.90899837646369,
        "alt_km": 598.5156523510277,
        "timestamp": "2025-12-16T13:52:36.287277+00:00",
        "meta_object_name": "2025-274B",
        "meta_object_id": "2025-274B",
        "meta_epoch": "2025-12-15T20:05:08.998080",
        "meta_mean_motion": 14.91824606,
        "meta_eccentricity": 0.00107248,
        "meta_inclination": 97.7389,
        "meta_ra_of_asc_node": 276.9692,
        "meta_arg_of_pericenter": 238.7441,
        "meta_mean_anomaly": 121.2728,
        "meta_ephemeris_type": 0,
        "meta_classification_type": "U",
        "meta_norad_cat_id": 66651,
        "meta_element_set_no": 999,
        "meta_rev_at_epoch": 286,
        "meta_bstar": 0.00024928111,
        "meta_mean_motion_dot": 2.462e-05,
        "meta_mean_motion_ddot": 0,
        "tle_line1": "1 66651U 25274B   25349.83690970  .00002462  00000+0  24928-3 0  9990",
        "tle_line2": "2 66651  97.7389 276.9692 0010724 238.7441 121.2728 14.91824606  2863"
      },
      "geometry": {
        "type": "Point",
        "coordinates": [
          -84.90899837646369,
          18.48678457328791
        ]
      }
    },
    {
      "type": "Feature",
      "properties": {
        "norad_id": 66652,
        "name": "2025-274C",
        "group": "last-30-days",
        "lat": 27.453010016916405,
        "lon": -86.34961402893127,
        "alt_km": 596.696152512669,
        "timestamp": "2025-12-16T13:52:36.287289+00:00",
        "meta_object_name": "2025-274C",
        "meta_object_id": "2025-274C",
        "meta_epoch": "2025-12-15T18:26:12.486048",
        "meta_mean_motion": 14.91921542,
        "meta_eccentricity": 0.00102973,
        "meta_inclination": 97.7394,
        "meta_ra_of_asc_node": 276.9066,
        "meta_arg_of_pericenter": 246.046,
        "meta_mean_anomaly": 113.9681,
        "meta_ephemeris_type": 0,
        "meta_classification_type": "U",
        "meta_norad_cat_id": 66652,
        "meta_element_set_no": 999,
        "meta_rev_at_epoch": 285,
        "meta_bstar": 0.00021878425,
        "meta_mean_motion_dot": 2.159e-05,
        "meta_mean_motion_ddot": 0,
        "tle_line1": "1 66652U 25274C   25349.76820007  .00002159  00000+0  21878-3 0  9993",
        "tle_line2": "2 66652  97.7394 276.9066 0010297 246.0460 113.9681 14.91921542  2855"
      },
      "geometry": {
        "type": "Point",
        "coordinates": [
          -86.34961402893127,
          27.453010016916405
        ]
      }
    }
  ]
}